STARLETTE               
1 07646U 75010A   20221.20156089 -.00000133  00000-0  65499-5 0  9990
2 07646  49.8233 267.2242 0205714 197.1212 162.2668 13.82308010298647
LAGEOS 1                
1 08820U 76039A   20220.67131734 -.00000001  00000-0  00000-0 0  9993
2 08820 109.8156 166.4835 0044465  39.4056 194.8866  6.38664787776819
AJISAI (EGS)            
1 16908U 86061A   20220.89583833 -.00000092  00000-0  36207-4 0  9992
2 16908  50.0076 245.5112 0011382 135.3679 290.2139 12.44492410214142
COSMOS 1989 (ETALON 1)  
1 19751U 89001C   20220.91217455  .00000012  00000-0  00000-0 0  9994
2 19751  64.1903 145.7022 0022760 211.1391 116.9681  2.13156389245768
COSMOS 2024 (ETALON 2)  
1 20026U 89039C   20220.69645601 -.00000059  00000-0  00000+0 0  9996
2 20026  65.4989  23.3942 0018199 220.5536  98.6984  2.13204489242888
LAGEOS 2                
1 22195U 92070B   20220.66337858 -.00000009  00000-0  00000+0 0  9998
2 22195  52.6405 178.7979 0137569 331.5922 260.9241  6.47294198657111
STELLA                  
1 22824U 93061B   20220.93216765 -.00000044  00000-0  11685-5 0  9997
2 22824  98.9636 213.0518 0005769 326.9474 129.6418 14.27381138399586
LARES                   
1 38077U 12006A   20220.76326818 -.00000049  00000-0 -64668-4 0  9990
2 38077  69.4951 346.5704 0011568 260.5201  99.4518 12.54930823388751
